HELIOS 1B               
1 25977U 99064A   26110.00854921  .00001011  00000+0  11696-3 0  9995
2 25977  98.1655  13.4596 0000575  44.5496 315.5766 14.87845931691406
TERRA                   
1 25994U 99068A   26110.21909846  .00000243  00000+0  58565-4 0  9991
2 25994  97.9512 162.0494 0003457  68.0441   1.8345 14.61055677401145
SL-16 R/B               
1 26070U 00006B   26110.13148862 -.00000001  00000+0  23524-4 0  9995
2 26070  71.0043  10.6982 0014713 122.8606 237.3936 14.15828347354423
TITAN 4B R/B            
1 26474U 00047B   26110.23516878  .00001834  00000+0  11921-3 0  9996
2 26474  67.9881 283.6530 0041841 347.6102  12.4014 15.09883335399189
ENVISAT                 
1 27386U 02009A   26110.11212242  .00000055  00000+0  31798-4 0  9993
2 27386  98.3792  62.7411 0001150  85.6366 284.7515 14.39050306265138
IDEFIX & ARIANE 42P R/B 
1 27422U 02021B   26110.23763912  .00000156  00000+0  75635-4 0  9996
2 27422  98.5916  48.3598 0012958  67.1434 293.1116 14.31052538249969
AQUA                    
1 27424U 02022A   26110.22610022  .00000562  00000+0  12177-3 0  9993
2 27424  98.4238  78.3699 0001926 102.2348 314.9309 14.62064491274802
CZ-4B R/B               
1 27432U 02024C   26110.08972304  .00000018  00000+0  32589-4 0  9998
2 27432  98.8755 163.2710 0049047 265.2689 114.0750 14.14554844235091
MIDORI II (ADEOS-II)    
1 27597U 02056A   26110.17604743  .00000182  00000+0  89256-4 0  9999
2 27597  98.7836  68.9595 0000520 146.6522 213.4692 14.29315007216220
H-2A R/B                
1 27601U 02056E   26110.15094929  .00000218  00000+0  90870-4 0  9996
2 27601  98.3270  68.9567 0071055  38.8888 333.8027 14.33789315220058
CZ-4B R/B               
1 28059U 03049C   26110.26264525  .00000238  00000+0  66134-4 0  9998
2 28059  98.6900 106.8085 0049307 104.5032 256.1641 14.55055562192649
CZ-2C R/B               
1 28222U 04012C   26110.17791051  .00043016  00000+0  36200-3 0  9991
2 28222  97.7134 179.5496 0014001 155.0972 205.0968 15.69622441210772
SL-16 R/B               
1 28353U 04021B   26110.10666908 -.00000126  00000+0 -40626-4 0  9996
2 28353  70.9997 145.5793 0006620 316.1402  43.9194 14.14605631128696
CZ-4B R/B               
1 28415U 04035C   26110.06226451  .00006558  00000+0  22689-3 0  9991
2 28415  97.3426 143.8138 0031784 178.4746 181.6597 15.29738411186239
CZ-2C R/B               
1 28480U 04046B   26110.20548548  .00000111  00000+0  56171-4 0  9998
2 28480  98.1971  22.6016 0140144  32.5487 328.4240 14.27008093114428
ARIANE 5 R/B            
1 28499U 04049H   26110.19803886  .00000618  00000+0  74705-4 0  9993
2 28499  98.2683 280.2261 0083330 215.8433 143.7172 14.85342900151956
CZ-2D R/B               
1 28738U 05024B   26110.02750677  .00042407  00000+0  45126-3 0  9990
2 28738  97.3544 126.8038 0003844 187.1942 172.9262 15.63897347146239
