[{"OBJECT_NAME":"HELIOS 1B","OBJECT_ID":"1999-064A","EPOCH":"2026-04-20T00:12:18.651744","MEAN_MOTION":14.87845931,"ECCENTRICITY":5.753e-5,"INCLINATION":98.1655,"RA_OF_ASC_NODE":13.4596,"ARG_OF_PERICENTER":44.5496,"MEAN_ANOMALY":315.5766,"EPHEMERIS_TYPE":0,"CLASSIFICATION_TYPE":"U","NORAD_CAT_ID":25977,"ELEMENT_SET_NO":999,"REV_AT_EPOCH":69140,"BSTAR":0.0001169596,"MEAN_MOTION_DOT":1.011e-5,"MEAN_MOTION_DDOT":0},{"OBJECT_NAME":"TERRA","OBJECT_ID":"1999-068A","EPOCH":"2026-04-20T05:15:30.106944","MEAN_MOTION":14.61055677,"ECCENTRICITY":0.00034573,"INCLINATION":97.9512,"RA_OF_ASC_NODE":162.0494,"ARG_OF_PERICENTER":68.0441,"MEAN_ANOMALY":1.8345,"EPHEMERIS_TYPE":0,"CLASSIFICATION_TYPE":"U","NORAD_CAT_ID":25994,"ELEMENT_SET_NO":999,"REV_AT_EPOCH":40114,"BSTAR":5.8564885e-5,"MEAN_MOTION_DOT":2.43e-6,"MEAN_MOTION_DDOT":0},{"OBJECT_NAME":"SL-16 R/B","OBJECT_ID":"2000-006B","EPOCH":"2026-04-20T03:09:20.616768","MEAN_MOTION":14.15828347,"ECCENTRICITY":0.00147135,"INCLINATION":71.0043,"RA_OF_ASC_NODE":10.6982,"ARG_OF_PERICENTER":122.8606,"MEAN_ANOMALY":237.3936,"EPHEMERIS_TYPE":0,"CLASSIFICATION_TYPE":"U","NORAD_CAT_ID":26070,"ELEMENT_SET_NO":999,"REV_AT_EPOCH":35442,"BSTAR":2.3524366e-5,"MEAN_MOTION_DOT":-1.0e-8,"MEAN_MOTION_DDOT":0},{"OBJECT_NAME":"TITAN 4B R/B","OBJECT_ID":"2000-047B","EPOCH":"2026-04-20T05:38:38.582592","MEAN_MOTION":15.09883335,"ECCENTRICITY":0.00418417,"INCLINATION":67.9881,"RA_OF_ASC_NODE":283.653,"ARG_OF_PERICENTER":347.6102,"MEAN_ANOMALY":12.4014,"EPHEMERIS_TYPE":0,"CLASSIFICATION_TYPE":"U","NORAD_CAT_ID":26474,"ELEMENT_SET_NO":999,"REV_AT_EPOCH":39918,"BSTAR":0.00011920787,"MEAN_MOTION_DOT":1.834e-5,"MEAN_MOTION_DDOT":0},{"OBJECT_NAME":"ENVISAT","OBJECT_ID":"2002-009A","EPOCH":"2026-04-20T02:41:27.377088","MEAN_MOTION":14.39050306,"ECCENTRICITY":0.00011505,"INCLINATION":98.3792,"RA_OF_ASC_NODE":62.7411,"ARG_OF_PERICENTER":85.6366,"MEAN_ANOMALY":284.7515,"EPHEMERIS_TYPE":0,"CLASSIFICATION_TYPE":"U","NORAD_CAT_ID":27386,"ELEMENT_SET_NO":999,"REV_AT_EPOCH":26513,"BSTAR":3.1798096e-5,"MEAN_MOTION_DOT":5.5e-7,"MEAN_MOTION_DDOT":0},{"OBJECT_NAME":"IDEFIX & ARIANE 42P R/B","OBJECT_ID":"2002-021B","EPOCH":"2026-04-20T05:42:12.019968","MEAN_MOTION":14.31052538,"ECCENTRICITY":0.00129584,"INCLINATION":98.5916,"RA_OF_ASC_NODE":48.3598,"ARG_OF_PERICENTER":67.1434,"MEAN_ANOMALY":293.1116,"EPHEMERIS_TYPE":0,"CLASSIFICATION_TYPE":"U","NORAD_CAT_ID":27422,"ELEMENT_SET_NO":999,"REV_AT_EPOCH":24996,"BSTAR":7.5634914e-5,"MEAN_MOTION_DOT":1.56e-6,"MEAN_MOTION_DDOT":0},{"OBJECT_NAME":"AQUA","OBJECT_ID":"2002-022A","EPOCH":"2026-04-20T05:25:35.059008","MEAN_MOTION":14.62064491,"ECCENTRICITY":0.00019268,"INCLINATION":98.4238,"RA_OF_ASC_NODE":78.3699,"ARG_OF_PERICENTER":102.2348,"MEAN_ANOMALY":314.9309,"EPHEMERIS_TYPE":0,"CLASSIFICATION_TYPE":"U","NORAD_CAT_ID":27424,"ELEMENT_SET_NO":999,"REV_AT_EPOCH":27480,"BSTAR":0.00012176948,"MEAN_MOTION_DOT":5.62e-6,"MEAN_MOTION_DDOT":0},{"OBJECT_NAME":"CZ-4B R/B","OBJECT_ID":"2002-024C","EPOCH":"2026-04-20T02:09:12.070656","MEAN_MOTION":14.14554844,"ECCENTRICITY":0.00490476,"INCLINATION":98.8755,"RA_OF_ASC_NODE":163.271,"ARG_OF_PERICENTER":265.2689,"MEAN_ANOMALY":114.075,"EPHEMERIS_TYPE":0,"CLASSIFICATION_TYPE":"U","NORAD_CAT_ID":27432,"ELEMENT_SET_NO":999,"REV_AT_EPOCH":23509,"BSTAR":3.2589072e-5,"MEAN_MOTION_DOT":1.8e-7,"MEAN_MOTION_DDOT":0},{"OBJECT_NAME":"MIDORI II (ADEOS-II)","OBJECT_ID":"2002-056A","EPOCH":"2026-04-20T04:13:30.497952","MEAN_MOTION":14.29315007,"ECCENTRICITY":5.204e-5,"INCLINATION":98.7836,"RA_OF_ASC_NODE":68.9595,"ARG_OF_PERICENTER":146.6522,"MEAN_ANOMALY":213.4692,"EPHEMERIS_TYPE":0,"CLASSIFICATION_TYPE":"U","NORAD_CAT_ID":27597,"ELEMENT_SET_NO":999,"REV_AT_EPOCH":21622,"BSTAR":8.9255705e-5,"MEAN_MOTION_DOT":1.82e-6,"MEAN_MOTION_DDOT":0},{"OBJECT_NAME":"H-2A R/B","OBJECT_ID":"2002-056E","EPOCH":"2026-04-20T03:37:22.018656","MEAN_MOTION":14.33789315,"ECCENTRICITY":0.00710556,"INCLINATION":98.327,"RA_OF_ASC_NODE":68.9567,"ARG_OF_PERICENTER":38.8888,"MEAN_ANOMALY":333.8027,"EPHEMERIS_TYPE":0,"CLASSIFICATION_TYPE":"U","NORAD_CAT_ID":27601,"ELEMENT_SET_NO":999,"REV_AT_EPOCH":22005,"BSTAR":9.087035e-5,"MEAN_MOTION_DOT":2.18e-6,"MEAN_MOTION_DDOT":0},{"OBJECT_NAME":"CZ-4B R/B","OBJECT_ID":"2003-049C","EPOCH":"2026-04-20T06:18:12.549600","MEAN_MOTION":14.55055562,"ECCENTRICITY":0.00493077,"INCLINATION":98.69,"RA_OF_ASC_NODE":106.8085,"ARG_OF_PERICENTER":104.5032,"MEAN_ANOMALY":256.1641,"EPHEMERIS_TYPE":0,"CLASSIFICATION_TYPE":"U","NORAD_CAT_ID":28059,"ELEMENT_SET_NO":999,"REV_AT_EPOCH":19264,"BSTAR":6.6134352e-5,"MEAN_MOTION_DOT":2.38e-6,"MEAN_MOTION_DDOT":0},{"OBJECT_NAME":"CZ-2C R/B","OBJECT_ID":"2004-012C","EPOCH":"2026-04-20T04:16:11.468064","MEAN_MOTION":15.69622441,"ECCENTRICITY":0.00140018,"INCLINATION":97.7134,"RA_OF_ASC_NODE":179.5496,"ARG_OF_PERICENTER":155.0972,"MEAN_ANOMALY":205.0968,"EPHEMERIS_TYPE":0,"CLASSIFICATION_TYPE":"U","NORAD_CAT_ID":28222,"ELEMENT_SET_NO":999,"REV_AT_EPOCH":21077,"BSTAR":0.00036200343,"MEAN_MOTION_DOT":0.00043016,"MEAN_MOTION_DDOT":0},{"OBJECT_NAME":"SL-16 R/B","OBJECT_ID":"2004-021B","EPOCH":"2026-04-20T02:33:36.208512","MEAN_MOTION":14.14605631,"ECCENTRICITY":0.00066202,"INCLINATION":70.9997,"RA_OF_ASC_NODE":145.5793,"ARG_OF_PERICENTER":316.1402,"MEAN_ANOMALY":43.9194,"EPHEMERIS_TYPE":0,"CLASSIFICATION_TYPE":"U","NORAD_CAT_ID":28353,"ELEMENT_SET_NO":999,"REV_AT_EPOCH":12869,"BSTAR":-4.0626197e-5,"MEAN_MOTION_DOT":-1.26e-6,"MEAN_MOTION_DDOT":0},{"OBJECT_NAME":"CZ-4B R/B","OBJECT_ID":"2004-035C","EPOCH":"2026-04-20T01:29:39.653664","MEAN_MOTION":15.29738411,"ECCENTRICITY":0.00317843,"INCLINATION":97.3426,"RA_OF_ASC_NODE":143.8138,"ARG_OF_PERICENTER":178.4746,"MEAN_ANOMALY":181.6597,"EPHEMERIS_TYPE":0,"CLASSIFICATION_TYPE":"U","NORAD_CAT_ID":28415,"ELEMENT_SET_NO":999,"REV_AT_EPOCH":18623,"BSTAR":0.0002268931,"MEAN_MOTION_DOT":6.558e-5,"MEAN_MOTION_DDOT":0},{"OBJECT_NAME":"CZ-2C R/B","OBJECT_ID":"2004-046B","EPOCH":"2026-04-20T04:55:53.945472","MEAN_MOTION":14.27008093,"ECCENTRICITY":0.01401442,"INCLINATION":98.1971,"RA_OF_ASC_NODE":22.6016,"ARG_OF_PERICENTER":32.5487,"MEAN_ANOMALY":328.424,"EPHEMERIS_TYPE":0,"CLASSIFICATION_TYPE":"U","NORAD_CAT_ID":28480,"ELEMENT_SET_NO":999,"REV_AT_EPOCH":11442,"BSTAR":5.6170821e-5,"MEAN_MOTION_DOT":1.11e-6,"MEAN_MOTION_DDOT":0},{"OBJECT_NAME":"ARIANE 5 R/B","OBJECT_ID":"2004-049H","EPOCH":"2026-04-20T04:45:10.557504","MEAN_MOTION":14.853429,"ECCENTRICITY":0.00833309,"INCLINATION":98.2683,"RA_OF_ASC_NODE":280.2261,"ARG_OF_PERICENTER":215.8433,"MEAN_ANOMALY":143.7172,"EPHEMERIS_TYPE":0,"CLASSIFICATION_TYPE":"U","NORAD_CAT_ID":28499,"ELEMENT_SET_NO":999,"REV_AT_EPOCH":15195,"BSTAR":7.4705359e-5,"MEAN_MOTION_DOT":6.18e-6,"MEAN_MOTION_DDOT":0},{"OBJECT_NAME":"CZ-2D R/B","OBJECT_ID":"2005-024B","EPOCH":"2026-04-20T00:39:36.584928","MEAN_MOTION":15.63897347,"ECCENTRICITY":0.00038447,"INCLINATION":97.3544,"RA_OF_ASC_NODE":126.8038,"ARG_OF_PERICENTER":187.1942,"MEAN_ANOMALY":172.9262,"EPHEMERIS_TYPE":0,"CLASSIFICATION_TYPE":"U","NORAD_CAT_ID":28738,"ELEMENT_SET_NO":999,"REV_AT_EPOCH":14623,"BSTAR":0.00045126489,"MEAN_MOTION_DOT":0.00042407,"MEAN_MOTION_DDOT":0}]
